CENTAURI-8              
1 62714U 25009DK  26068.72637183  .00004445  00000+0  38891-3 0  9993
2 62714  97.7096 150.1876 0003020 109.5881 250.5667 14.97228330 62597
STARLINK-34641          
1 64797U 25150H   26068.59527051  .00003666  00000+0  31486-3 0  9997
2 64797  70.0015 134.6559 0003474 269.7987  90.2774 14.98334402 37330
